,name,categories,address,cc,city,country,crossStreet,distance,formattedAddress,labeledLatLngs,lat,lng,state,id
0,幕張メッセ駐車場 P1,Parking,美浜区豊砂3-1,JP,千葉市,日本,,17284,"['美浜区豊砂3-1', '千葉市, 千葉県', '261-0024', '日本']","[{'label': 'display', 'lat': 35.65014768081253, 'lng': 140.03053665161133}]",35.65014768081253,140.03053665161133,千葉県,4c14460aa5eb76b04590c1b7
1,新砂リバーステーション,Harbor / Marina,新砂3丁目,JP,江東区,日本,,304,"['新砂3丁目', '江東区, 東京都', '日本']","[{'label': 'display', 'lat': 35.65434459825511, 'lng': 139.84227951331852}]",35.65434459825511,139.84227951331852,東京都,4f40467ae4b0102f0d5f06b9
2,新江東清掃工場,Waste Facility,夢の島3-1-1,JP,東京,日本,,775,"['夢の島3-1-1', '江東区, 東京都', '136-0081', '日本']","[{'label': 'display', 'lat': 35.647819984551035, 'lng': 139.83352623925072}]",35.647819984551035,139.83352623925072,東京都,4e222ae822717a5245d32630
3,荒川河口橋,Bridge,新木場4/夢の島3/臨海町1/臨海町6,JP,,日本,荒川,887,"['新木場4/夢の島3/臨海町1/臨海町6 (荒川)', '江東区/江戸川区, 東京都', '日本']","[{'label': 'display', 'lat': 35.64720020158448, 'lng': 139.84642102509903}]",35.64720020158448,139.84642102509903,東京都,4bd8555235aad13a7c9390f3
4,新砂水門,Canal Lock,夢の島3/新砂3,JP,東京,日本,砂町運河,390,"['夢の島3/新砂3 (砂町運河)', '江東区, 東京都', '日本']","[{'label': 'display', 'lat': 35.65234930091306, 'lng': 139.83520121186115}]",35.65234930091306,139.83520121186115,東京都,4f1ccdf50cd67469c7b9e642
5,JR京葉線 東京駅,Train Station,丸の内1-9-1,JP,千代田区,日本,,7296,"['丸の内1-9-1', '千代田区, 東京都', '100-0005', '日本']","[{'label': 'display', 'lat': 35.67772716044116, 'lng': 139.76484775543213}]",35.67772716044116,139.76484775543213,東京都,535ac87611d2d5f9d8bc1606
6,Keiyo Underground Platforms 1-2 (京葉地下1-2番線ホーム),Platform,丸の内1-9-1,JP,東京,日本,JR東京駅 京葉線/武蔵野線,7292,"['丸の内1-9-1 (JR東京駅 京葉線/武蔵野線)', '千代田区, 東京都', '100-0005', '日本']","[{'label': 'display', 'lat': 35.677647532482055, 'lng': 139.7648480527956}]",35.677647532482055,139.7648480527956,東京都,4eea7222f9ab8fc95f240e49
7,荒川湾岸橋,Bridge,臨海町 / 新木場,JP,,日本,首都高湾岸線,515,"['臨海町 / 新木場 (首都高湾岸線)', '江戸川区 / 江東区, 東京都', '日本']","[{'label': 'display', 'lat': 35.64830911522108, 'lng': 139.84072654826994}]",35.64830911522108,139.84072654826994,東京都,4e8645bad5fb2ee2eed76f4d
8,砂町運河,Canal,,JP,東京,日本,,390,"['江東区, 東京都', '日本']","[{'label': 'display', 'lat': 35.652371439694086, 'lng': 139.83520111871425}]",35.652371439694086,139.83520111871425,東京都,4ed1d5a477c8ea62fddf261c
9,荒川河口から0km(右岸),River,新砂,JP,江東区,日本,,310,"['新砂', '江東区, 東京都', '日本']","[{'label': 'display', 'lat': 35.65443459659575, 'lng': 139.84228239473276}]",35.65443459659575,139.84228239473276,東京都,4f9e275ce4b03d83ee0119b3
10,Shin-Kiba Station (新木場駅),Train Station,新木場1,JP,江東区,日本,,1387,"['新木場1', '江東区, 東京都', '136-0082', '日本']","[{'label': 'display', 'lat': 35.64602, 'lng': 139.82663}]",35.64602,139.82663,東京都,4b4162b1f964a52016c625e3
11,新左近川水門,Canal Lock,臨海町1,JP,東京,日本,新左近川/荒川,1022,"['臨海町1 (新左近川/荒川)', '江戸川区, 東京都', '日本']","[{'label': 'display', 'lat': 35.654356259314206, 'lng': 139.85062211751938}]",35.654356259314206,139.85062211751938,東京都,4f1ccc910cd67469c7b9bff6
12,清新町 健康の道,River,,JP,,日本,,1378,['日本'],"[{'label': 'display', 'lat': 35.66054254542438, 'lng': 139.8514047568369}]",35.66054254542438,139.8514047568369,,4fa45dbde4b039aeea975d2e
13,夢の島緑道公園,Park,夢の島1丁目/夢の島2丁目/夢の島緑道公園,JP,江東区,日本,,630,"['夢の島1丁目/夢の島2丁目/夢の島緑道公園', '江東区, 東京都', '日本']","[{'label': 'display', 'lat': 35.64743043908992, 'lng': 139.83736439573582}]",35.64743043908992,139.83736439573582,東京都,4ccd24cb566aa093053c26fd
14,AEON PET (イオンペット),Pet Store,,JP,,日本,,1359,['日本'],"[{'label': 'display', 'lat': 35.64896956760029, 'lng': 139.8252160778118}]",35.64896956760029,139.8252160778118,,519a0caf498e53015fabe3d0
15,東部スラッジプラント,Factory,新砂3-8-1,JP,江東区,日本,,382,"['新砂3-8-1', '江東区, 東京都', '136-0075', '日本']","[{'label': 'display', 'lat': 35.65625887375148, 'lng': 139.8397672176361}]",35.65625887375148,139.8397672176361,東京都,4df47b4e62e1288ed307ac46
16,荒川サイクリングロード河口,River,新砂3丁目,JP,江東区,日本,,297,"['新砂3丁目', '江東区, 東京都', '日本']","[{'label': 'display', 'lat': 35.65426717554989, 'lng': 139.84225481863575}]",35.65426717554989,139.84225481863575,東京都,4f93685ce4b0aed81fa43e2c
17,新砂運動場 サッカー場,Soccer Field,,JP,江東区,日本,,496,"['江東区, 東京都', '136-0075', '日本']","[{'label': 'display', 'lat': 35.6567, 'lng': 139.83675}]",35.6567,139.83675,東京都,5ca9d8d7061b51002c508b44
18,東京メトロ新木場駅 お忘れ物取扱所,Metro Station,,JP,江東区,日本,,1421,"['江東区, 東京都', '日本']","[{'label': 'display', 'lat': 35.645815, 'lng': 139.826344}]",35.645815,139.826344,東京都,58bcadea61052870f454229f
19,Shinkiba Exit (新木場出入口),Toll Booth,新木場1,JP,江東区,日本,首都高速湾岸線,849,"['新木場1 (首都高速湾岸線)', '江東区, 東京都', '136-0082', '日本']","[{'label': 'display', 'lat': 35.646972029698574, 'lng': 139.83345866203308}]",35.646972029698574,139.83345866203308,東京都,4c46d5f134999c74a0f900fd
20,東京都下水道サービス 東部スラッジセンター,Office,新砂3-8-1,JP,江東区,日本,砂町水再生センター内,1101,"['新砂3-8-1 (砂町水再生センター内)', '江東区, 東京都', '136-0075', '日本']","[{'label': 'display', 'lat': 35.662116810888435, 'lng': 139.8352611064911}]",35.662116810888435,139.8352611064911,東京都,503a4a32582f68749e72b493
21,手もみ処 西葛西,Spa,江戸川区西葛西5-2-14,JP,,日本,,1291,"['江戸川区西葛西5-2-14', '日本']","[{'label': 'display', 'lat': 35.65869539826149, 'lng': 139.8517946751676}]",35.65869539826149,139.8517946751676,,522ab70311d22df72cef5145
22,ハイデック,Distribution Center,新木場1-6-21,JP,江東区,日本,,1263,"['新木場1-6-21', '江東区, 東京都', '日本']","[{'label': 'display', 'lat': 35.645232, 'lng': 139.829097}]",35.645232,139.829097,東京都,4c09f7ba340720a13fc38593
23,丸の内食糧株式会社,Factory,新木場1-6-20,JP,江東区,日本,,1237,"['新木場1-6-20', '江東区, 東京都', '136-0082', '日本']","[{'label': 'display', 'lat': 35.645129, 'lng': 139.829621}]",35.645129,139.829621,東京都,5c9f9dd1a2a6ce002c191202
24,Komeda's Coffee (コメダ珈琲店),Café,新木場1-6-1,JP,江東区,日本,新木場メトログルメ・ショッピングセンター 2F,1442,"['新木場1-6-1 (新木場メトログルメ・ショッピングセンター 2F)', '江東区, 東京都', '136-0082', '日本']","[{'label': 'display', 'lat': 35.64561886829113, 'lng': 139.82622546825522}]",35.64561886829113,139.82622546825522,東京都,5a58aa030457b76a1a32c504
25,Tokyo Yumenoshima Marina (東京夢の島マリーナ),Harbor / Marina,夢の島3-2-1,JP,東京,日本,,744,"['夢の島3-2-1', '江東区, 東京都', '136-0081', '日本']","[{'label': 'display', 'lat': 35.652060456949975, 'lng': 139.83129775964284}]",35.652060456949975,139.83129775964284,東京都,4c43d8c936d6a59398c369a8
26,新砂船着場,Boat or Ferry,,JP,,日本,,291,['日本'],"[{'label': 'display', 'lat': 35.65423052688623, 'lng': 139.84220242402645}]",35.65423052688623,139.84220242402645,,4e018d59aeb76b6109886bd0
27,木材・合板博物館,Museum,新木場1-7-22,JP,江東区,日本,新木場タワー 3-4F,1067,"['新木場1-7-22 (新木場タワー 3-4F)', '江東区, 東京都', '136-0082', '日本']","[{'label': 'display', 'lat': 35.64563601574023, 'lng': 139.83167842581085}]",35.64563601574023,139.83167842581085,東京都,4e6c55ce483b1f5ebe0a1873
28,Yumenoshima Tropical Greenhouse Dome (夢の島熱帯植物館),Botanical Garden,夢の島2-1-2,JP,東京,日本,夢の島公園,919,"['夢の島2-1-2 (夢の島公園)', '江東区, 東京都', '136-0081', '日本']","[{'label': 'display', 'lat': 35.651289750966164, 'lng': 139.82948899269104}]",35.651289750966164,139.82948899269104,東京都,4ba4377ef964a520dc8c38e3
29,夢の島東少年野球場,Baseball Field,夢の島3,JP,東京,日本,夢の島公園,595,"['夢の島3 (夢の島公園)', '江東区, 東京都', '136-0081', '日本']","[{'label': 'display', 'lat': 35.647704627981604, 'lng': 139.83759929093796}]",35.647704627981604,139.83759929093796,東京都,4f24a28b00392be4e51a19d4
0,New York City Hall,City Hall,260 E Broadway,US,New York,United States,at Murray St,13,"['260 E Broadway (at Murray St)', 'New York, NY 10002', 'United States']",,40.712658728604865,-74.00588035583496,NY,4a676321f964a52051c91fe3
1,City Hall Park,Park,17 Park Row,US,New York,United States,btwn Broadway & Centre St,69,"['17 Park Row (btwn Broadway & Centre St)', 'New York, NY 10038', 'United States']",,40.71241508549692,-74.00672422767822,NY,3fd66200f964a520d8f11ee3
2,MTA Subway - City Hall (R/W),Metro Station,Warren St.,US,New York,United States,at Broadway,107,"['Warren St. (at Broadway)', 'New York, NY 10038', 'United States']","[{'label': 'display', 'lat': 40.71339431394821, 'lng': -74.00693448868766}]",40.71339431394821,-74.00693448868766,NY,4b57b0dff964a520293c28e3
3,New York,Pizza Place,230 Broadway,US,New York,United States,,8,"['230 Broadway', 'New York, NY 10007', 'United States']","[{'label': 'display', 'lat': 40.712784, 'lng': -74.00594}]",40.712784,-74.00594,NY,58f0cd8db1ec13241266420a
4,Halal Food Cart,Indian Restaurant,723,US,New York,United States,Btwn w 23rd & 24th Street,8,"['723 (Btwn w 23rd & 24th Street)', 'New York, NY 10010', 'United States']","[{'label': 'display', 'lat': 40.71277753095443, 'lng': -74.00594269525764}]",40.71277753095443,-74.00594269525764,NY,4c1102f3ce57c928ecbb82d2
5,Mary's Coffee Shop,Coffee Shop,25-15 Queens Plz N,US,Long Island City,United States,,8,"['25-15 Queens Plz N', 'Long Island City, NY 11101', 'United States']","[{'label': 'display', 'lat': 40.712785672206365, 'lng': -74.00594379881144}]",40.712785672206365,-74.00594379881144,NY,4b475390f964a520f12e26e3
6,NY Gift Shop,Gift Shop,234 Canal St,US,New York,United States,at Centre St.,3,"['234 Canal St (at Centre St.)', 'New York, NY 10013', 'United States']","[{'label': 'display', 'lat': 40.71273261495395, 'lng': -74.0059782295639}]",40.71273261495395,-74.0059782295639,NY,4b79a5e8f964a52037082fe3
7,Garden Of Eden,Flower Shop,Fulton St,US,New York,United States,,8,"['Fulton St', 'New York, NY', 'United States']","[{'label': 'display', 'lat': 40.71278797046345, 'lng': -74.00595252126766}]",40.71278797046345,-74.00595252126766,NY,52753553498e60add54f2434
8,Citi Bike Station,Bike Rental / Bike Share,Centre St & Chambers St,US,New York,United States,,8,"['Centre St & Chambers St', 'New York, NY', 'United States']","[{'label': 'display', 'lat': 40.712790488598394, 'lng': -74.00594983155005}]",40.712790488598394,-74.00594983155005,NY,51a16e778bbd0c6641889870
9,Barns & Noble at Pace University,College Bookstore,41 Park Row,US,New York,United States,at Spruce St,73,"['41 Park Row (at Spruce St)', 'New York, NY 10038', 'United States']","[{'label': 'display', 'lat': 40.71338917492071, 'lng': -74.00594379881144}]",40.71338917492071,-74.00594379881144,NY,4cd03c85a03a9eb0c158b103
10,St comunity beach,Beach,new york,US,New York,United States,,8,"['new york', 'New York, NY', 'United States']","[{'label': 'display', 'lat': 40.712780844159425, 'lng': -74.00594379881144}]",40.712780844159425,-74.00594379881144,NY,4dd77d22b3adc64ae076925d
11,June's Fruit Cart,Food Truck,60 Centre St,US,New York,United States,,8,"['60 Centre St', 'New York, NY 10007', 'United States']","[{'label': 'display', 'lat': 40.712785672206365, 'lng': -74.00594379881144}]",40.712785672206365,-74.00594379881144,NY,4e31861d7d8b9b256bcc43a8
12,MTA - M22 Park Row & Spruce Street,Bus Station,Park Row,US,New York,United States,Spruce St,74,"['Park Row (Spruce St)', 'New York, NY 10038', 'United States']","[{'label': 'display', 'lat': 40.712067613573225, 'lng': -74.00590936805283}]",40.712067613573225,-74.00590936805283,NY,4c9bdfe87c096dcb6190bcd1
13,NYC Apartment,Residential Building (Apartment / Condo),85 Chambers St,US,New York,United States,,8,"['85 Chambers St', 'New York, NY 10007', 'United States']","[{'label': 'display', 'lat': 40.712785672206365, 'lng': -74.00594379881144}]",40.712785672206365,-74.00594379881144,NY,51f68449498e1044dc6c70b5
14,$5 Shots,Bar,,US,New York,United States,,8,"['New York, NY', 'United States']","[{'label': 'display', 'lat': 40.712780844159425, 'lng': -74.00594379881144}]",40.712780844159425,-74.00594379881144,NY,53a111d7498e95d1de6686d4
15,DMK Burger Bar,Bar,New York,US,New York,United States,Garden City,8,"['New York (Garden City)', 'New York, NY', 'United States']","[{'label': 'display', 'lat': 40.712785672206365, 'lng': -74.00594379881144}]",40.712785672206365,-74.00594379881144,NY,4d571f67c0432d43b313ffb1
16,The Horace Greeley Statue,Public Art,City Hall Park,US,New York,United States,Brooklyn Bridge Walkway,98,"['City Hall Park (Brooklyn Bridge Walkway)', 'New York, NY 10007', 'United States']","[{'label': 'display', 'lat': 40.71281940417326, 'lng': -74.00485143699832}]",40.71281940417326,-74.00485143699832,NY,4fa93fdae4b07cb43c20da74
17,New York Hot Dog Stand,Food Truck,23 Park Row,US,New York,United States,(Across From City Hall Park),61,"['23 Park Row ((Across From City Hall Park))', 'New York, NY 10038', 'United States']","[{'label': 'display', 'lat': 40.71265997946427, 'lng': -74.00529535181674}]",40.71265997946427,-74.00529535181674,NY,4ded5ce6d4c0194252e5941b
18,Pizza-deli,Pizza Place,1107,US,New York,United States,Between 77th & 78th street,8,"['1107 (Between 77th & 78th street)', 'New York, NY 10007', 'United States']","[{'label': 'display', 'lat': 40.71278280369608, 'lng': -74.00594030791383}]",40.71278280369608,-74.00594030791383,NY,4c12c1e877cea59380a8cd60
19,Department of Education,Government Building,52 Chambers St,US,New York,United States,Broadway,111,"['52 Chambers St (Broadway)', 'New York, NY 10007', 'United States']","[{'label': 'display', 'lat': 40.713592946737236, 'lng': -74.00534734942701}]",40.713592946737236,-74.00534734942701,NY,4c8e2987daa937045f0d4ab1
20,Benjamin Franklin Statue,Outdoor Sculpture,Spruce St,US,New York,United States,Nassau St,94,"['Spruce St (Nassau St)', 'New York, NY 10038', 'United States']","[{'label': 'display', 'lat': 40.71188352495002, 'lng': -74.00597959582488}]",40.71188352495002,-74.00597959582488,NY,4d26409e8292236a30bf04bb
21,Tweed Courthouse,Courthouse,52 Chambers St,US,New York,United States,btw Broadway & Centre,107,"['52 Chambers St (btw Broadway & Centre)', 'New York, NY 10007', 'United States']","[{'label': 'display', 'lat': 40.713537009316944, 'lng': -74.00532683791994}]",40.713537009316944,-74.00532683791994,NY,4af849b1f964a520e00b22e3
22,Iron Valley Harley Davidson Shop,,,US,New York,United States,,26,"['New York, NY', 'United States']","[{'label': 'display', 'lat': 40.7129573, 'lng': -74.005941}]",40.7129573,-74.005941,NY,53d3c3e4498e61807eafdb53
23,Lux Accessories @ Shop Small Pop-Up Mall,Jewelry Store,,US,New York,United States,,8,"['New York, NY 10282', 'United States']","[{'label': 'display', 'lat': 40.712780844159425, 'lng': -74.00594379881144}]",40.712780844159425,-74.00594379881144,NY,4ec3cc39b63468c86d4c0737
24,Estados Unidos,Government Building,,US,New York,United States,,6,"['New York, NY 10007', 'United States']","[{'label': 'display', 'lat': 40.712776, 'lng': -74.005974}]",40.712776,-74.005974,NY,5a5818e79e0d54787d1bc4d2
25,Ocean Colony Beach,Surf Spot,Montauk Hwy,US,Amaganset,United States,,8,"['Montauk Hwy', 'Amaganset, NY', 'United States']","[{'label': 'display', 'lat': 40.712780844159425, 'lng': -74.00594379881144}]",40.712780844159425,-74.00594379881144,NY,4c584145744a0f4731c9cacb
26,Cinema shop,,,US,New York,United States,,104,"['New York, NY', 'United States']","[{'label': 'display', 'lat': 40.7123108580709, 'lng': -74.0071180276573}]",40.7123108580709,-74.0071180276573,NY,52b8127711d2619f6832d0f4
27,Residência Da Luz,,,US,New York,United States,,105,"['New York, NY', 'United States']","[{'label': 'display', 'lat': 40.7122813537717, 'lng': -74.0071180276573}]",40.7122813537717,-74.0071180276573,NY,52a4add911d2466bde6334a3
28,tom studio,,1151 soi 3,US,Wangtonglang,United States,,117,"['1151 soi 3', 'Wangtonglang, NY 10130', 'United States']","[{'label': 'display', 'lat': 40.713726, 'lng': -74.006461}]",40.713726,-74.006461,NY,4b4ab5b5f964a520538d26e3
29,Campo do Bahia,,Rua 4,US,Manaus,United States,,103,"['Rua 4', 'Manaus, NY', 'United States']","[{'label': 'display', 'lat': 40.7123195752501, 'lng': -74.0071180276573}]",40.7123195752501,-74.0071180276573,NY,52baea6a498e58ade4fc3c2a
0,Place de l'Hôtel de Ville – Esplanade de la Libération,Plaza,Place de l'Hôtel de Ville,FR,Paris,France,,35,"[""Place de l'Hôtel de Ville"", '75004 Paris', 'France']",,48.85692475726913,2.3514118156673676,Île-de-France,4bf41231e5eba59334341f90
1,Berges de Seine – Rive droite,Pedestrian Plaza,De la passerelle Léopold-Sédar-Senghor au port de l'Arsenal,FR,Paris,France,,174,"[""De la passerelle Léopold-Sédar-Senghor au port de l'Arsenal"", 'Paris', 'France']","[{'label': 'display', 'lat': 48.855130568830376, 'lng': 2.352289446225441}]",48.855130568830376,2.352289446225441,Île-de-France,58d800df9435a979b8a645fa
2,"Métro Hôtel de Ville [1,11]",Metro Station,Place de l'Hôtel de Ville,FR,Paris,France,,84,"[""Place de l'Hôtel de Ville"", '75004 Paris', 'France']","[{'label': 'display', 'lat': 48.85735288397006, 'lng': 2.3517608642578125}]",48.85735288397006,2.3517608642578125,Île-de-France,4b8ccf47f964a520c7dd32e3
3,Hôtel de Ville de Paris (Hôtel de ville de Paris),City Hall,4 place de l'Hôtel de Ville,FR,Paris,France,Esplanade de la Libération,65,"[""4 place de l'Hôtel de Ville (Esplanade de la Libération)"", '75004 Paris', 'France']","[{'label': 'display', 'lat': 48.85647757431556, 'lng': 2.352372407913208}]",48.85647757431556,2.352372407913208,Île-de-France,4adcda09f964a520e53321e3
4,Pont Notre-Dame,Bridge,Pont Notre-Dame,FR,Paris,France,,217,"['Pont Notre-Dame', '75004 Paris', 'France']","[{'label': 'display', 'lat': 48.85617403594195, 'lng': 2.348606586456299}]",48.85617403594195,2.348606586456299,Île-de-France,4c2f66a6213c2d7fe1be305d
5,paul & rimbaud,,40 RUE SEDAIN,FR,Paris,France,,66,"['40 RUE SEDAIN', '75011 Paris', 'France']","[{'label': 'display', 'lat': 48.85672694373347, 'lng': 2.352393561376971}]",48.85672694373347,2.352393561376971,Île-de-France,5a2aa18aff03060e9699ae3a
6,Godiva,Gift Shop,C.C One Nation Paris,FR,Les Clayes-sous-Bois,France,1 avenue du Président John Fitzgerald Kennedy,27308,"['C.C One Nation Paris (1 avenue du Président John Fitzgerald Kennedy)', '78340 Les Clayes-sous-Bois', 'France']","[{'label': 'display', 'lat': 48.82951747159943, 'lng': 1.9810259342193604}]",48.82951747159943,1.9810259342193604,Île-de-France,52ab80f8498e6c2d5f9505bc
7,Paris Plages,Beach,,FR,Paris,France,,113,"['75004 Paris', 'France']","[{'label': 'display', 'lat': 48.855644, 'lng': 2.3509932}]",48.855644,2.3509932,Île-de-France,5d44a94860e7e40007d13a1b
8,Café Clémentine,Café,4 rue de la Coutellerie,FR,Paris,France,,107,"['4 rue de la Coutellerie', '75004 Paris', 'France']","[{'label': 'display', 'lat': 48.85721121243165, 'lng': 2.3503456018570033}]",48.85721121243165,2.3503456018570033,Île-de-France,51c5c23d498e3a8ed20914ba
9,Vélib' [04-17],Bike Rental / Bike Share,7 place de l'Hôtel de Ville,FR,Paris,France,,48,"[""7 place de l'Hôtel de Ville"", '75004 Paris', 'France']","[{'label': 'display', 'lat': 48.85697876155512, 'lng': 2.351149320602417}]",48.85697876155512,2.351149320602417,Île-de-France,4b4a244df964a5201c7c26e3
10,Brigade de la Protection des Mineurs,Police Station,,FR,Paris,France,,30,"['Paris', 'France']","[{'label': 'display', 'lat': 48.856531099732614, 'lng': 2.3510952652336568}]",48.856531099732614,2.3510952652336568,Île-de-France,4ea16e29775b5c3e82b328a1
11,Bureau de la Maire de Paris,Office,Hôtel de ville de Paris,FR,Paris,France,,77,"['Hôtel de ville de Paris', '75004 Paris', 'France']","[{'label': 'display', 'lat': 48.85594835104866, 'lng': 2.3518394267809515}]",48.85594835104866,2.3518394267809515,Île-de-France,53464d3e498e37416804fbc0
12,La Poste,Post Office,Place de l'Hôtel de Ville,FR,Paris,France,Rue de Rivoli,61,"[""Place de l'Hôtel de Ville (Rue de Rivoli)"", '75001 Paris', 'France']","[{'label': 'display', 'lat': 48.857139624045324, 'lng': 2.351720996488165}]",48.857139624045324,2.351720996488165,Île-de-France,4bb08355f964a52025493ce3
13,Illy Espressamente Caffe BHV,Café,,FR,Paris,France,,106,"['Paris', 'France']","[{'label': 'display', 'lat': 48.85725831361192, 'lng': 2.3525663605521805}]",48.85725831361192,2.3525663605521805,Île-de-France,5227491611d222413f8bdff1
14,"Arrêt Hôtel de Ville [67,69,72,76,96,N11,N16]",Bus Stop,62 rue de Rivoli,FR,Paris,France,,110,"['62 rue de Rivoli', '75004 Paris', 'France']","[{'label': 'display', 'lat': 48.85721168568647, 'lng': 2.352695272193955}]",48.85721168568647,2.352695272193955,Île-de-France,4d56a836c0432d4383c8fab1
15,"Arrêt Hôtel de Ville [72,74]",Bus Stop,2 avenue Victoria,FR,Paris,France,,62,"['2 avenue Victoria', '75001 Paris', 'France']","[{'label': 'display', 'lat': 48.85687956709455, 'lng': 2.3507506971690613}]",48.85687956709455,2.3507506971690613,Île-de-France,4d996af49079b1f72401420a
16,Geox,Shoe Store,70 rue de Rivoli,FR,Paris,France,,87,"['70 rue de Rivoli', '75001 Paris', 'France']","[{'label': 'display', 'lat': 48.85739234685534, 'lng': 2.3514915485719325}]",48.85739234685534,2.3514915485719325,Île-de-France,4b89512ff964a520192b32e3
17,Bistro Marguerite,Bistro,1 place de l'Hôtel de ville,FR,Paris,France,Rue de Rivoli,63,"[""1 place de l'Hôtel de ville (Rue de Rivoli)"", '75004 Paris', 'France']","[{'label': 'display', 'lat': 48.856231534459624, 'lng': 2.350842634876193}]",48.856231534459624,2.350842634876193,Île-de-France,4bbf498ab083a593a620a3e9
18,The Body Shop,Cosmetics Shop,68 rue de Rivoli,FR,Paris,France,,111,"['68 rue de Rivoli', '75004 Paris', 'France']","[{'label': 'display', 'lat': 48.85753024, 'lng': 2.35210557}]",48.85753024,2.35210557,Île-de-France,4d99bbbadaec224bd286653e
19,Oysho,Women's Store,74 rue de Rivoli,FR,Paris,France,1 rue du Renard,123,"['74 rue de Rivoli (1 rue du Renard)', '75004 Paris', 'France']","[{'label': 'display', 'lat': 48.85771818004514, 'lng': 2.3513799905776978}]",48.85771818004514,2.3513799905776978,Île-de-France,4bf691a892d19521f9d3591f
20,"Noctilien Hôtel De Ville [N11, N15, N16, N22]",Bus Stop,Av Victoria,FR,Paris,France,,91,"['Av Victoria', '75004 Paris', 'France']","[{'label': 'display', 'lat': 48.857031, 'lng': 2.350428}]",48.857031,2.350428,Île-de-France,5c60c194e47b46002c8a62fe
21,Paris Rendez-Vous,Souvenir Shop,29 rue de Rivoli,FR,Paris,France,Rue Lobau,110,"['29 rue de Rivoli (Rue Lobau)', '75004 Paris', 'France']","[{'label': 'display', 'lat': 48.85695052578769, 'lng': 2.3529142141342163}]",48.85695052578769,2.3529142141342163,Île-de-France,5361075a498ea34171cb06ca
22,Ixina,Furniture / Home Store,Rue de la Fée Verte,FR,Paris,France,,52,"['Rue de la Fée Verte', '25300 Paris', 'France']","[{'label': 'display', 'lat': 48.85653404636803, 'lng': 2.3522114753723145}]",48.85653404636803,2.3522114753723145,Île-de-France,555acf04498e52b9e266d3d5
23,Vélib' [909],Bike Rental / Bike Share,Pont d'Arcole,FR,Paris,France,Quai de l'Hôtel de Ville,103,"[""Pont d'Arcole (Quai de l'Hôtel de Ville)"", '75004 Paris', 'France']","[{'label': 'display', 'lat': 48.85581, 'lng': 2.350778}]",48.85581,2.350778,Île-de-France,58e144635a58691421466a9a
24,CMIE Médecine du Travail,Doctor's Office,68 rue de Rivoli,FR,Paris,France,,112,"['68 rue de Rivoli', 'Paris', 'France']","[{'label': 'display', 'lat': 48.857554262239425, 'lng': 2.352053475656256}]",48.857554262239425,2.352053475656256,Île-de-France,4ee5dd200aaf89395121f331
25,Cafe Margueritte,Café,,FR,,France,,67,['France'],"[{'label': 'display', 'lat': 48.856289024228076, 'lng': 2.3507232725552663}]",48.856289024228076,2.3507232725552663,,4e268302a809510950d80359
26,Artisan de la Truffe,French Restaurant,52 rue de Rivoli,FR,Paris,France,3ème étage du BHV Marais,103,"['52 rue de Rivoli (3ème étage du BHV Marais)', '75004 Paris', 'France']","[{'label': 'display', 'lat': 48.857297, 'lng': 2.352454}]",48.857297,2.352454,Île-de-France,569a48a4498edb460ac5a219
27,Salon Marais,Lounge,,FR,Paris,France,,108,"['75004 Paris', 'France']","[{'label': 'display', 'lat': 48.85724, 'lng': 2.352624}]",48.85724,2.352624,Île-de-France,5ab25b886f0aa2247504bc61
28,Good Morning Paris,Bed & Breakfast,43 rue Lacépède,FR,Paris,France,,1403,"['43 rue Lacépède', '75004 Paris', 'France']","[{'label': 'display', 'lat': 48.84401687020186, 'lng': 2.3505377769470215}]",48.84401687020186,2.3505377769470215,Île-de-France,584f9ffd18fd2b78269f0f18
29,La Chaise Longue,Furniture / Home Store,,FR,,France,,123,['France'],"[{'label': 'display', 'lat': 48.85772, 'lng': 2.351433}]",48.85772,2.351433,,585d19729398ab5940cbade0
0,Proud Embankment,Bar,8 Victoria Embankment,GB,London,United Kingdom,,12,"['8 Victoria Embankment', 'London', 'Greater London', 'WC2R 2AB', 'United Kingdom']","[{'label': 'display', 'lat': 51.50997074891439, 'lng': -0.11813262023081302}]",51.50997074891439,-0.11813262023081302,Greater London,5acb4fe9851de554affcffb5
1,Waterloo Bridge,Bridge,Waterloo Bridge,GB,London,United Kingdom,,179,"['Waterloo Bridge', 'London', 'Greater London', 'WC2R 1LA', 'United Kingdom']","[{'label': 'display', 'lat': 51.50844359164094, 'lng': -0.11687363114191843}]",51.50844359164094,-0.11687363114191843,Greater London,4adb5c6ff964a5206b2621e3
2,TfL Bus 26,Bus Line,,GB,London,United Kingdom,,2055,"['London', 'Greater London', 'United Kingdom']","[{'label': 'display', 'lat': 51.513363107227256, 'lng': -0.08896350860595703}]",51.513363107227256,-0.08896350860595703,Greater London,4bbe235d061fb7131acaedce
3,Strand Terrace,Restaurant,The Strand,GB,London,United Kingdom,,11,"['The Strand', 'London', 'Greater London', 'WC2N 5HX', 'United Kingdom']","[{'label': 'display', 'lat': 51.50993612455431, 'lng': -0.11796488120642185}]",51.50993612455431,-0.11796488120642185,Greater London,4ac518ddf964a5208fa920e3
4,Somerset House,Event Space,Strand,GB,London,United Kingdom,,103,"['Strand', 'London', 'Greater London', 'WC2R 1LA', 'United Kingdom']","[{'label': 'display', 'lat': 51.51078575130956, 'lng': -0.11789917945861816}]",51.51078575130956,-0.11789917945861816,Greater London,4ac518cff964a52063a620e3
5,Victoria Embankment Gardens,Garden,Victoria Embankment,GB,London,United Kingdom,btwn Villiers St & Savoy St,336,"['Victoria Embankment (btwn Villiers St & Savoy St)', 'London', 'Greater London', 'United Kingdom']","[{'label': 'display', 'lat': 51.508135223356234, 'lng': -0.12207889450158034}]",51.508135223356234,-0.12207889450158034,Greater London,4b9e3908f964a520f6d236e3
6,The Institution of Engineering and Technology (IET),Convention Center,2 Savoy Pl,GB,London,United Kingdom,,74,"['2 Savoy Pl', 'London', 'Greater London', 'WC2R 0BL', 'United Kingdom']","[{'label': 'display', 'lat': 51.50986186921532, 'lng': -0.11916036667405835}]",51.50986186921532,-0.11916036667405835,Greater London,4bfb80c9565f76b0bba305db
7,Somerset House Studios,Exhibit,Strand,GB,London,United Kingdom,,125,"['Strand', 'London', 'Greater London', 'W C2R', 'United Kingdom']","[{'label': 'display', 'lat': 51.510732, 'lng': -0.116938}]",51.510732,-0.116938,Greater London,5810e19238fad02c6f031533
8,Savoy Place,Convention Center,Savoy Place,GB,London,United Kingdom,,72,"['Savoy Place', 'London', 'Greater London', 'WC2R 0BL', 'United Kingdom']","[{'label': 'display', 'lat': 51.50981746919057, 'lng': -0.11913633372473872}]",51.50981746919057,-0.11913633372473872,Greater London,4b15837cf964a520f6ad23e3
9,Lancaster Place (T),Bus Stop,Lancaster Place,GB,London,United Kingdom,Strand,80,"['Lancaster Place (Strand)', 'London', 'Greater London', 'United Kingdom']","[{'label': 'display', 'lat': 51.510511943132514, 'lng': -0.11860182159576725}]",51.510511943132514,-0.11860182159576725,Greater London,4f5213b2e4b03365338a13c2
10,Westminster Bridge,Bridge,Westminster Bridge Rd.,GB,London,United Kingdom,Victoria Embankment,1027,"['Westminster Bridge Rd. (Victoria Embankment)', 'London', 'Greater London', 'SE1 7XB', 'United Kingdom']","[{'label': 'display', 'lat': 51.500868916203046, 'lng': -0.12141823768615723}]",51.500868916203046,-0.12141823768615723,Greater London,4ac518d0f964a52097a620e3
11,ECI partners,,"Brettenham House, Lancaster Place",GB,London,United Kingdom,,30,"['Brettenham House, Lancaster Place', 'London', 'Greater London', 'United Kingdom']","[{'label': 'display', 'lat': 51.51003784495428, 'lng': -0.11842558686460372}]",51.51003784495428,-0.11842558686460372,Greater London,4caedaa975ebb60c8783b7ad
12,RNLI Lifeboat Station Tower Pier,Pier,Victoria Embankment,GB,London,United Kingdom,,43,"['Victoria Embankment', 'London', 'Greater London', 'WC2R 2PP', 'United Kingdom']","[{'label': 'display', 'lat': 51.51007033602788, 'lng': -0.11756239548658716}]",51.51007033602788,-0.11756239548658716,Greater London,4c9a50badb10b60c99a6916d
13,Chrysaor,Office,Brettenham House,GB,London,United Kingdom,,106,"['Brettenham House', 'London', 'Greater London', 'WC2E 7AE', 'United Kingdom']","[{'label': 'display', 'lat': 51.510605, 'lng': -0.119069}]",51.510605,-0.119069,Greater London,5a61be182632ec2593997b1b
14,Duchy Of Lancaster,Office,,GB,,United Kingdom,,52,['United Kingdom'],"[{'label': 'display', 'lat': 51.51027431551097, 'lng': -0.11845957347635735}]",51.51027431551097,-0.11845957347635735,,525d3157498e4d747c3d63ea
15,Makerversity,Coworking Space,Sommerset House,GB,London,United Kingdom,,36,"['Sommerset House', 'London', 'Greater London', 'United Kingdom']","[{'label': 'display', 'lat': 51.51008112168355, 'lng': -0.11769269118837544}]",51.51008112168355,-0.11769269118837544,Greater London,5537dcd6498e6226c978d742
16,Spring,Restaurant,"Somerset House, The Strand",GB,London,United Kingdom,,119,"['Somerset House, The Strand', 'London', 'Greater London', 'WC2R 1LA', 'United Kingdom']","[{'label': 'display', 'lat': 51.51086096386724, 'lng': -0.11872236971078685}]",51.51086096386724,-0.11872236971078685,Greater London,53eb5ba1498eef14e3cec68a
17,Tom's Terrace,Cocktail Bar,Somerset House,GB,London,United Kingdom,,108,"['Somerset House', 'London', 'Greater London', 'WC2R 1LA', 'United Kingdom']","[{'label': 'display', 'lat': 51.510488309663536, 'lng': -0.11688329174401799}]",51.510488309663536,-0.11688329174401799,Greater London,4beaeefc415e20a16aa8e5bb
18,JISC,Office,,GB,London,United Kingdom,,51,"['London', 'Greater London', 'WC2 R 1', 'United Kingdom']","[{'label': 'display', 'lat': 51.51017216274861, 'lng': -0.11865056823561838}]",51.51017216274861,-0.11865056823561838,Greater London,4c0d2d7ed64c0f475350265d
19,Pennethorne's Cafe Bar,Bar,"New Wing, Somerset House",GB,London,United Kingdom,,99,"['New Wing, Somerset House', 'London', 'Greater London', 'WC2R 1LA', 'United Kingdom']","[{'label': 'display', 'lat': 51.51068631814778, 'lng': -0.11865904363236512}]",51.51068631814778,-0.11865904363236512,Greater London,54874894498e3a15c87906e8
20,Savoy Street Business Centre,Conference Room,9 Savoy Street,GB,London,United Kingdom,,22,"['9 Savoy Street', 'London', 'Greater London', 'United Kingdom']","[{'label': 'display', 'lat': 51.50983879056345, 'lng': -0.11777503177147557}]",51.50983879056345,-0.11777503177147557,Greater London,4ecbb3c59adfd1f5b5350753
21,Bus Stop E - The Strand,Bus Line,Strand,GB,London,United Kingdom,,62,"['Strand', 'London', 'Greater London', 'United Kingdom']","[{'label': 'display', 'lat': 51.51040797820727, 'lng': -0.11833428011916043}]",51.51040797820727,-0.11833428011916043,Greater London,526a826d11d267fbd9dd8a44
22,Runners Need,Sporting Goods Shop,Lancaster Place,GB,London,United Kingdom,,122,"['Lancaster Place', 'London', 'Greater London', 'United Kingdom']","[{'label': 'display', 'lat': 51.51085380394018, 'lng': -0.11887153418551015}]",51.51085380394018,-0.11887153418551015,Greater London,4faa54c5e4b0dc75ba27ec53
23,Makerversity Workshop,Design Studio,Somerset House,GB,London,United Kingdom,Victoria Embankment,89,"['Somerset House (Victoria Embankment)', 'London', 'Greater London', 'WC2R 1LA', 'United Kingdom']","[{'label': 'display', 'lat': 51.51062848982876, 'lng': -0.11770720633294332}]",51.51062848982876,-0.11770720633294332,Greater London,5501d3c5498e1d8335478611
24,Riverside,River,Birkenhead Street,GB,Camden Town,United Kingdom,,125,"['Birkenhead Street', 'Camden Town', 'Greater London', 'United Kingdom']","[{'label': 'display', 'lat': 51.51092332789304, 'lng': -0.11747902592657967}]",51.51092332789304,-0.11747902592657967,Greater London,4e0c5f2d8877c535e46d1723
25,Relax  terrace,Other Great Outdoors,London,GB,London,United Kingdom,,86,"['London', 'London', 'Greater London', 'United Kingdom']","[{'label': 'display', 'lat': 51.510059, 'lng': -0.116889}]",51.510059,-0.116889,Greater London,5202c1ce498e0197f2f4bb90
26,east wing galleries,Art Gallery,,GB,,United Kingdom,,104,['United Kingdom'],"[{'label': 'display', 'lat': 51.510673, 'lng': -0.117326}]",51.510673,-0.117326,,5469e169498e1d85822504c8
27,The Paint Room,Café,,GB,London,United Kingdom,,50,"['London', 'Greater London', 'W C2E', 'United Kingdom']","[{'label': 'display', 'lat': 51.51032, 'lng': -0.11817}]",51.51032,-0.11817,Greater London,5baa5bfcfe3740002c9f8b6c
28,Savoy Hill House,Office,,GB,London,United Kingdom,,103,"['London', 'Greater London', 'WC2R 0DA', 'United Kingdom']","[{'label': 'display', 'lat': 51.510372, 'lng': -0.119350255}]",51.510372,-0.119350255,Greater London,5bd836fd666116002c7b0d3a
29,Bryn Williams,Restaurant,"Somerset House, Strand,",GB,London,United Kingdom,,89,"['Somerset House, Strand,', 'London', 'Greater London', 'W C2R', 'United Kingdom']","[{'label': 'display', 'lat': 51.510429, 'lng': -0.117171}]",51.510429,-0.117171,Greater London,5a9c08c11cf2e172180df626
0,Lane Crawford (連卡佛),Department Store,"Shop 3025-3026/3031-3066, 3/F, ifc mall, 8 Finance St",HK,中環,香港,,30,"['Shop 3025-3026/3031-3066, 3/F, ifc mall, 8 Finance St', '中西區', '香港']","[{'label': 'display', 'lat': 22.285756655150845, 'lng': 114.15782968103488}]",22.285756655150845,114.15782968103488,中西區,4b0588dcf964a5206ddd22e3
1,Le Salon de Thé de Joël Robuchon,Café,"Shop 2045A, 2/F, IFC Mall, 8 Finance St",HK,中環,香港,,107,"['Shop 2045A, 2/F, IFC Mall, 8 Finance St', '中西區', '香港']","[{'label': 'display', 'lat': 22.28648311738804, 'lng': 114.15774330499067}]",22.28648311738804,114.15774330499067,中西區,51ee032e498e7529ce59308b
2,Club Monaco,Clothing Store,"Shop 1039, 1/F, ifc mall",HK,香港,香港,,16,"['Shop 1039, 1/F, ifc mall', '香港']","[{'label': 'display', 'lat': 22.285657591157833, 'lng': 114.15762268306526}]",22.285657591157833,114.15762268306526,,4b35dab6f964a520222f25e3
3,city'super,Supermarket,"Shop 1041-1049, ifc mall, 8 Finance St",HK,中環,香港,,89,"['Shop 1041-1049, ifc mall, 8 Finance St', '中西區', '香港']","[{'label': 'display', 'lat': 22.2863191254814, 'lng': 114.15780586214832}]",22.2863191254814,114.15780586214832,中西區,4b0903d2f964a520d81323e3
4,Bottega Veneta,Boutique,"Two International Finance Centre, 8 Finance St, Shop 2038, Central",HK,中環,香港,,22,"['Two International Finance Centre, 8 Finance St, Shop 2038, Central', '中西區', '香港']","[{'label': 'display', 'lat': 22.285687, 'lng': 114.157563}]",22.285687,114.157563,中西區,51f2573e498ea04b5a69299b
5,Nespresso,Coffee Shop,"Shop 1058, 1/F, IFC Mall, 1 Harbour View St",HK,香港,香港,,49,"['Shop 1058, 1/F, IFC Mall, 1 Harbour View St', '香港']","[{'label': 'display', 'lat': 22.285664558966864, 'lng': 114.15814334805853}]",22.285664558966864,114.15814334805853,,4b8bac69f964a52080a632e3
6,Central Pier No. 5 (中環 5 號碼頭),Pier,Man Kwong St,HK,Central,香港,,306,"['Man Kwong St', 'Hong Kong Island', '香港']","[{'label': 'display', 'lat': 22.287741734214816, 'lng': 114.15944636079624}]",22.287741734214816,114.15944636079624,Hong Kong Island,4bb93684cf2fc9b6d55fa002
7,LANVIN-Ladies,Women's Store,"Shop 2043, ifc Mall, 8 Finance St.",HK,中環,香港,,99,"['Shop 2043, ifc Mall, 8 Finance St.', '中西區', '香港']","[{'label': 'display', 'lat': 22.28640242879588, 'lng': 114.15784330226415}]",22.28640242879588,114.15784330226415,中西區,4d1c66abf8ca236a06cbf530
8,Palace IFC (百老匯院線),Multiplex,"Shop 1058B, 1/F, ifc mall, 8 Finance St",HK,中環,香港,,55,"['Shop 1058B, 1/F, ifc mall, 8 Finance St', '中西區', '香港']","[{'label': 'display', 'lat': 22.285742434142808, 'lng': 114.1581680176365}]",22.285742434142808,114.1581680176365,中西區,4b0df819f964a5204e5323e3
9,Apple ifc mall,Electronics Store,"IFC Mall, 8 Finance St",HK,中環,香港,,175,"['IFC Mall, 8 Finance St', '中西區', '香港']","[{'label': 'display', 'lat': 22.284601807590427, 'lng': 114.15907233953476}]",22.284601807590427,114.15907233953476,中西區,4d6cdd3c1dfca35d169b3fe0
10,David Braga Dentistry,Dentist's Office,402 Baskerville House,HK,中環,香港,22 Ice House Street,723,"['402 Baskerville House (22 Ice House Street)', '中西區', '香港']","[{'label': 'display', 'lat': 22.279097090632824, 'lng': 114.15661247807412}]",22.279097090632824,114.15661247807412,中西區,4ddf1563227140b904f9cdce
11,Yat Lok Restaurant (一樂燒鵝),Cantonese Restaurant,"G/F, 34-38 Stanley St",HK,中環,香港,,409,"['G/F, 34-38 Stanley St', '中西區', '香港']","[{'label': 'display', 'lat': 22.28253600884452, 'lng': 114.15536735301605}]",22.28253600884452,114.15536735301605,中西區,4ed70871be7b3567163a9b79
12,Joint Dynamics,Gym / Fitness Center,59-65 Queen's Road Central 5/F,HK,香港,香港,,345,"[""59-65 Queen's Road Central 5/F"", '香港']","[{'label': 'display', 'lat': 22.283054129272944, 'lng': 114.15565421735573}]",22.283054129272944,114.15565421735573,,5225c99e11d2d05b42c10ce7
13,Fuel Espresso,Coffee Shop,"Shop 3023, 3/F, IFC Mall, 1 Harbour View St",HK,中環,香港,,63,"['Shop 3023, 3/F, IFC Mall, 1 Harbour View St', '中西區', '香港']","[{'label': 'display', 'lat': 22.28507494595841, 'lng': 114.15729744090731}]",22.28507494595841,114.15729744090731,中西區,4b42db5af964a52081da25e3
14,ifc mall (國際金融中心商場),Shopping Mall,8 Finance St,HK,香港,香港,,111,"['8 Finance St', '香港']","[{'label': 'display', 'lat': 22.2846131, 'lng': 114.158156172}]",22.2846131,114.158156172,,4b0588def964a520b9dd22e3
15,Coach Hong Kong,Accessories Store,Shop 1038,HK,中環,香港,IFC Mall,19,"['Shop 1038 (IFC Mall)', '中西區', '香港']","[{'label': 'display', 'lat': 22.28556922725017, 'lng': 114.15751237345368}]",22.28556922725017,114.15751237345368,中西區,5676860c498ea48273bc5dce
16,Central Pier No. 7 (Star Ferry) (中環7號碼頭 (天星小輪)),Pier,Man Kwong St,HK,中環,香港,,352,"['Man Kwong St', '中西區', '香港']","[{'label': 'display', 'lat': 22.286729208483546, 'lng': 114.16085648482989}]",22.286729208483546,114.16085648482989,中西區,4b559a1ef964a520a7e827e3
17,Two International Finance Centre Minibus Terminus 國際金融中心二期小巴總站,Bus Station,Finance St,HK,中環,香港,,49,"['Finance St', '中西區', '香港']","[{'label': 'display', 'lat': 22.28510550868201, 'lng': 114.15750656768289}]",22.28510550868201,114.15750656768289,中西區,4d4ab77c48a06dcbabd17da2
18,MTR Hong Kong Station (港鐵香港站),Metro Station,Harbour View St,HK,中環,香港,,87,"['Harbour View St', '香港']","[{'label': 'display', 'lat': 22.285054070191876, 'lng': 114.15837868775205}]",22.285054070191876,114.15837868775205,,4b4e9d37f964a520a4f226e3
19,Hong Kong Station Minibus Terminus (香港站小巴總站),Bus Station,Harbour View St,HK,中環,香港,,132,"['Harbour View St', '中西區', '香港']","[{'label': 'display', 'lat': 22.284377, 'lng': 114.158056}]",22.284377,114.158056,中西區,52805ae411d2a293a2698450
20,Swarovski,Jewelry Store,"1 Harbour View St, IFC Mall",HK,中環,香港,Shop 1051,113,"['1 Harbour View St, IFC Mall (Shop 1051)', '中西區', '香港']","[{'label': 'display', 'lat': 22.285519068348624, 'lng': 114.15879544694083}]",22.285519068348624,114.15879544694083,中西區,4bfcb1918992a5934220abb0
21,Linq,Bar,37 Pottinger St,HK,香港,香港,,478,"['37 Pottinger St', '香港']","[{'label': 'display', 'lat': 22.282249, 'lng': 114.154683}]",22.282249,114.154683,,5b933a98c62b49002c3a3d76
22,Ten-musubi (天御結),Japanese Restaurant,"Shop 1065, 1/F, IFC, 1 Harbour View St",HK,中区,香港,,177,"['Shop 1065, 1/F, IFC, 1 Harbour View St', '香港']","[{'label': 'display', 'lat': 22.284856002953557, 'lng': 114.15925760851489}]",22.284856002953557,114.15925760851489,,565bfd27498ef1a0d7305429
23,Theory,Boutique,"Theory IFC. Shop 1052A, IFC Mall International Finance Center 8 Finance Street, Central Hong Kong",HK,,香港,,55,"['Theory IFC. Shop 1052A, IFC Mall International Finance Center 8 Finance Street, Central Hong Kong', '香港']","[{'label': 'display', 'lat': 22.285072, 'lng': 114.157456}]",22.285072,114.157456,,5438cd8b498eaaadad33abb6
24,Le Metier de Beaute,Cosmetics Shop,"@ JOYCE, Lane Crawford, IFC Mall",HK,Hong Kong,香港,at Man Cheung St,57,"['@ JOYCE, Lane Crawford, IFC Mall (at Man Cheung St)', 'China', '香港']","[{'label': 'display', 'lat': 22.28599909864546, 'lng': 114.15790557861328}]",22.28599909864546,114.15790557861328,China,4c811057309aef3b4c50b981
25,Tsui Wah Restaurant (翠華餐廳),Cha Chaan Teng,84-86 Des Voeux Rd C,HK,中環,香港,at Jubilee St,228,"['84-86 Des Voeux Rd C (at Jubilee St)', '中西區', '香港']","[{'label': 'display', 'lat': 22.284521739226633, 'lng': 114.15574882844942}]",22.284521739226633,114.15574882844942,中西區,4b45e561f964a520e31126e3
26,J.Crew,Clothing Store,"Shops 1026-1028, ifc mall, 8 Finance Street,",HK,香港,香港,,53,"['Shops 1026-1028, ifc mall, 8 Finance Street,', '香港']","[{'label': 'display', 'lat': 22.285040272255934, 'lng': 114.15763266384602}]",22.285040272255934,114.15763266384602,,537d8342498e4aedc8192683
27,Ecco,Shoe Store,"Shop 1036, IFC Mall, 8 Finance St",HK,中環,香港,,42,"['Shop 1036, IFC Mall, 8 Finance St', '中西區', '香港']","[{'label': 'display', 'lat': 22.28589882593484, 'lng': 114.15763429462305}]",22.28589882593484,114.15763429462305,中西區,50d66f17e4b0cc2e8055d074
28,Furla,Accessories Store,,HK,,香港,,46,['香港'],"[{'label': 'display', 'lat': 22.285468654621795, 'lng': 114.15813359049152}]",22.285468654621795,114.15813359049152,,4d803e0e360b224b89cfd656
29,7-Eleven,Convenience Store,"Shop HOK-23A, MTR Hong Kong Station",HK,中環,香港,,57,"['Shop HOK-23A, MTR Hong Kong Station', '中西區', '香港']","[{'label': 'display', 'lat': 22.28505655349031, 'lng': 114.15744850997068}]",22.28505655349031,114.15744850997068,中西區,533b579e498e94f7b2c0ba89
0,Izakaya Masuya,Japanese Restaurant,"Ground Floor, 12-14 O'Connell St",AU,Sydney,Australia,,13,"[""Ground Floor, 12-14 O'Connell St"", 'Sydney NSW 2000', 'Australia']","[{'label': 'display', 'lat': -33.86519507981446, 'lng': 151.209766255503}]",-33.86519507981446,151.209766255503,NSW,5382b890498ef9ed051316ba
1,Masuya,Japanese Restaurant,"Lower Level, 12-14 O'Connell St.",AU,Sydney,Australia,,6,"[""Lower Level, 12-14 O'Connell St."", 'Sydney NSW 2000', 'Australia']","[{'label': 'display', 'lat': -33.86518818447266, 'lng': 151.20985961136435}]",-33.86518818447266,151.20985961136435,NSW,4b16211bf964a52019b723e3
2,Roll'd,Vietnamese Restaurant,10 Spring St,AU,Sydney,Australia,,4,"['10 Spring St', 'Sydney NSW 2000', 'Australia']","[{'label': 'display', 'lat': -33.86517489686627, 'lng': 151.2098684694006}]",-33.86517489686627,151.2098684694006,NSW,55668e58498efa7eb3f05734
3,O'Connell St Medical Centre,Doctor's Office,"Mezzanine, 12 O'Connell Street",AU,Sydney,Australia,,6,"[""Mezzanine, 12 O'Connell Street"", 'Sydney NSW', 'Australia']","[{'label': 'display', 'lat': -33.865119, 'lng': 151.209961}]",-33.865119,151.209961,NSW,55d556da498ee25b6addd03f
4,D&S Dental,Dentist's Office,12 O'connell Street,AU,Sydney,Australia,Hunter Street,46,"[""12 O'connell Street (Hunter Street)"", 'Sydney NSW 2000', 'Australia']","[{'label': 'display', 'lat': -33.86526648244712, 'lng': 151.20941519737244}]",-33.86526648244712,151.20941519737244,NSW,4f950d7cbe776df060d52019
5,Detail For Men,Salon / Barbershop,"Level 1, 8 Spring St",AU,Sydney,Australia,at Bent St,22,"['Level 1, 8 Spring St (at Bent St)', 'Sydney NSW 2000', 'Australia']","[{'label': 'display', 'lat': -33.865129544375044, 'lng': 151.21014507168755}]",-33.865129544375044,151.21014507168755,NSW,4bdba9252a3a0f47fc53b0b6
6,O'Connell Street Cafe,Café,17 O'Connell St,AU,Sydney City Center,Australia,,3,"[""17 O'Connell St"", 'Sydney City Center NSW 2000', 'Australia']","[{'label': 'display', 'lat': -33.86516960251676, 'lng': 151.20987442991742}]",-33.86516960251676,151.20987442991742,NSW,52dda6db498e410fba213b19
7,Malay Chinese,Malay Restaurant,"Shop 1, 50-58 Hunter St",AU,Sydney,Australia,btwn O'Connell & Bligh St,103,"[""Shop 1, 50-58 Hunter St (btwn O'Connell & Bligh St)"", 'Sydney NSW 2000', 'Australia']","[{'label': 'display', 'lat': -33.86605157704083, 'lng': 151.20968030029948}]",-33.86605157704083,151.20968030029948,NSW,4b1480ebf964a520f9a323e3
8,G.A Zink & Sons,Men's Store,O'Connell Street,AU,Sydney,Australia,,6,"[""O'Connell Street"", 'Sydney NSW', 'Australia']","[{'label': 'display', 'lat': -33.865106, 'lng': 151.209952}]",-33.865106,151.209952,NSW,4f4af093e4b05ebee224bf84
9,The Carter,Beer Bar,10 O'Connell St,AU,Sydney,Australia,,19,"[""10 O'Connell St"", 'Sydney NSW 2000', 'Australia']","[{'label': 'display', 'lat': -33.86528057185353, 'lng': 151.2097638220008}]",-33.86528057185353,151.2097638220008,NSW,58c10df893eaf803489d6abf
10,Balcón by tapavino,Spanish Restaurant,17 Bligh St,AU,Sydney,Australia,,38,"['17 Bligh St', 'Sydney NSW 2000', 'Australia']","[{'label': 'display', 'lat': -33.864954703021134, 'lng': 151.2102522813219}]",-33.864954703021134,151.2102522813219,NSW,578f3cf6cd109e0f7f514a4d
11,UNSW CBD Campus,University,"Level 6, 1 O'Connell St",AU,Sydney,Australia,Spring St,83,"[""Level 6, 1 O'Connell St (Spring St)"", 'Sydney NSW 2000', 'Australia']","[{'label': 'display', 'lat': -33.864516805817715, 'lng': 151.21039278285127}]",-33.864516805817715,151.21039278285127,NSW,4b94a965f964a520e97f34e3
12,Bavarian Bier Cafe,German Restaurant,16 O'Connell St.,AU,Sydney,Australia,,32,"[""16 O'Connell St."", 'Sydney NSW 2000', 'Australia']","[{'label': 'display', 'lat': -33.86535802866369, 'lng': 151.20966251713688}]",-33.86535802866369,151.20966251713688,NSW,4b173566f964a520c8c323e3
13,Radisson Blu Plaza Hotel,Hotel,27 O'Connell Street,AU,Sydney,Australia,Pitt St.,74,"[""27 O'Connell Street (Pitt St.)"", 'Sydney NSW 2000', 'Australia']","[{'label': 'display', 'lat': -33.8653588, 'lng': 151.2091363}]",-33.8653588,151.2091363,NSW,4b05875df964a520d18d22e3
14,Wintergarden Deli,Deli / Bodega,1 O'Connell St,AU,Sydney,Australia,,46,"[""1 O'Connell St"", 'Sydney NSW', 'Australia']","[{'label': 'display', 'lat': -33.864743145946015, 'lng': 151.20975147555976}]",-33.864743145946015,151.20975147555976,NSW,4b996d08f964a520a87a35e3
15,Maxwell's Cafe Bar Espresso,Coffee Shop,7 Spring St.,AU,Sydney,Australia,,98,"['7 Spring St.', 'Sydney NSW 2000', 'Australia']","[{'label': 'display', 'lat': -33.86461920105295, 'lng': 151.20904438329472}]",-33.86461920105295,151.20904438329472,NSW,4bd97240cc5b9521314ef24f
16,Radisson Health Club & Spa,Gym / Fitness Center,27 O'Connell Street,AU,Sydney,Australia,Radisson Blu Plaza Hotel Sydney,88,"[""27 O'Connell Street (Radisson Blu Plaza Hotel Sydney)"", 'Sydney NSW 2000', 'Australia']","[{'label': 'display', 'lat': -33.86559745613321, 'lng': 151.20911768075243}]",-33.86559745613321,151.20911768075243,NSW,4d152802bb64224be1a0b265
17,The Porter,Club House,1 O'Connell St,AU,Sydney,Australia,,60,"[""1 O'Connell St"", 'Sydney NSW 2000', 'Australia']","[{'label': 'display', 'lat': -33.86460194416232, 'lng': 151.20983720700977}]",-33.86460194416232,151.20983720700977,NSW,53bcf4e3498e88796c61da34
18,Bar Pho,Vietnamese Restaurant,Wintergarden Plaza,AU,Sydney,Australia,1 O'Connell St.,55,"[""Wintergarden Plaza (1 O'Connell St.)"", 'Sydney NSW 2000', 'Australia']","[{'label': 'display', 'lat': -33.86470414284409, 'lng': 151.21017981827669}]",-33.86470414284409,151.21017981827669,NSW,5614b48d498ea3525f672509
19,Bowery Lane,Café,"Shop 1, Level 4, 1 O'Connell St.",AU,Sydney,Australia,,24,"[""Shop 1, Level 4, 1 O'Connell St."", 'Sydney NSW 2000', 'Australia']","[{'label': 'display', 'lat': -33.86498918626203, 'lng': 151.21008469396924}]",-33.86498918626203,151.21008469396924,NSW,53dac5cf498e64aee9e6e705
20,Gus Stop Coffee,Coffee Shop,"Forecourt, 25 Bligh St",AU,Sydney,Australia,Sofitel Phillip St Entry,88,"['Forecourt, 25 Bligh St (Sofitel Phillip St Entry)', 'Sydney NSW 2000', 'Australia']","[{'label': 'display', 'lat': -33.86580344854611, 'lng': 151.2104291467155}]",-33.86580344854611,151.2104291467155,NSW,4bb40f6d643cd13acd65395c
21,Next Level Escape,Recreation Center,"LG, 23 O’Connell Street",AU,Sydney,Australia,,99,"['LG, 23 O’Connell Street', 'Sydney NSW 2000', 'Australia']","[{'label': 'display', 'lat': -33.866035, 'lng': 151.20995}]",-33.866035,151.20995,NSW,5ab709f1b1ec136b2c306fd7
22,Swiss Concept,Jewelry Store,,AU,Sydney,Australia,,53,"['Sydney NSW', 'Australia']","[{'label': 'display', 'lat': -33.86497702211933, 'lng': 151.20935341177758}]",-33.86497702211933,151.20935341177758,NSW,50bedc5de4b07ff47133fe1d
23,SkinDNA Clinic,Spa,"Level 6, 12 O'connell Street, Sydney 2000.",AU,Sydney,Australia,,5,"[""Level 6, 12 O'connell Street, Sydney 2000."", 'Sydney NSW 2000', 'Australia']","[{'label': 'display', 'lat': -33.865161, 'lng': 151.209843}]",-33.865161,151.209843,NSW,5346347f498e2e80a4cdda43
24,Janus Cafe,Café,1 Bligh St.,AU,Sydney,Australia,,84,"['1 Bligh St.', 'Sydney NSW 2000', 'Australia']","[{'label': 'display', 'lat': -33.864975216936166, 'lng': 151.21079341840303}]",-33.864975216936166,151.21079341840303,NSW,4e1b83bf483bf2b0dbb14b2e
25,Celestial Chinese Restaurant,Chinese Restaurant,15 Bligh Street,AU,Sydney,Australia,,46,"['15 Bligh Street', 'Sydney NSW', 'Australia']","[{'label': 'display', 'lat': -33.865383181400865, 'lng': 151.21031531198494}]",-33.865383181400865,151.21031531198494,NSW,52f721b311d2a99dc75bf860
26,Wink Hair,Cosmetics Shop,4/50 Hunter St,AU,Sydney,Australia,,89,"['4/50 Hunter St', 'Sydney NSW', 'Australia']","[{'label': 'display', 'lat': -33.86595025354317, 'lng': 151.20992258279236}]",-33.86595025354317,151.20992258279236,NSW,4bce420e68f976b07ccd6583
27,Oporto,Fried Chicken Joint,"Wintergarden Shopping Centre, Lv l 3",AU,Sydney,Australia,1 O'Connell St,97,"[""Wintergarden Shopping Centre, Lv l 3 (1 O'Connell St)"", 'Sydney NSW 2000', 'Australia']","[{'label': 'display', 'lat': -33.86436609154736, 'lng': 151.21039499628776}]",-33.86436609154736,151.21039499628776,NSW,4c031cbf187ec928f94ab57b
28,Crema At The Garden,Café,,AU,Sydney,Australia,,81,"['Sydney NSW 2000', 'Australia']","[{'label': 'display', 'lat': -33.864492, 'lng': 151.210299}]",-33.864492,151.210299,NSW,5a960a319f8a9f163064c9ee
29,Cheeky Monkey Cycle Company,Sporting Goods Shop,456 Pitt Street,AU,Sydney,Australia,,84,"['456 Pitt Street', 'Sydney NSW 2000', 'Australia']","[{'label': 'display', 'lat': -33.864641, 'lng': 151.210584}]",-33.864641,151.210584,NSW,4b05876ef964a5208b9222e3
0,Av do estado São Paulo,Moving Target,,BR,,Brasil,,42,['Brasil'],"[{'label': 'display', 'lat': -23.534131395296956, 'lng': -46.62544543977818}]",-23.534131395296956,-46.62544543977818,,527378da11d2ab6b39bb7c5f
1,Tamijak Sucos e Lanches,Sandwich Place,"Rua João Teodoro, 586",BR,São Paulo,Brasil,com Rua Cantareira,29,"['Rua João Teodoro, 586 (com Rua Cantareira)', 'São Paulo, SP', '0105000', 'Brasil']","[{'label': 'display', 'lat': -23.533991, 'lng': -46.625446}]",-23.533991,-46.625446,SP,4f37df11e4b0d26ba1717c50
2,Rio Tamanduateí,River,Av. do Estado,BR,São Paulo,Brasil,,88,"['Av. do Estado', 'São Paulo, SP', 'Brasil']","[{'label': 'display', 'lat': -23.533850804156195, 'lng': -46.62615210171553}]",-23.533850804156195,-46.62615210171553,SP,4c85458cc5a9952173af9305
3,Toca do Mosquito,Bar,,BR,,Brasil,,195,['Brasil'],"[{'label': 'display', 'lat': -23.53545462563937, 'lng': -46.62582703598035}]",-23.53545462563937,-46.62582703598035,,51395850e4b06091ac4d0662
4,Padaria Nova Era,Bakery,,BR,,Brasil,,150,['Brasil'],"[{'label': 'display', 'lat': -23.532479524194006, 'lng': -46.62572810335119}]",-23.532479524194006,-46.62572810335119,,51cedf0f498e45cf2d2e826d
5,Liceu de Artes e Ofícios de São Paulo,High School,"R. da Cantareira, 1351",BR,São Paulo,Brasil,R. Jorge Miranda,145,"['R. da Cantareira, 1351 (R. Jorge Miranda)', 'São Paulo, SP', 'Brasil']","[{'label': 'display', 'lat': -23.533399379715878, 'lng': -46.62665619335155}]",-23.533399379715878,-46.62665619335155,SP,4c6a6ead8d22c9286fb1b945
6,Adesul Transportadora,General Travel,"Rua Pedro Alvares Cabral, 145",BR,,Brasil,"Rua João Teodoro, 690",55,"['Rua Pedro Alvares Cabral, 145 (Rua João Teodoro, 690)', 'Brasil']","[{'label': 'display', 'lat': -23.53414229370332, 'lng': -46.625652165480034}]",-23.53414229370332,-46.625652165480034,,51b8a539498e26051016d558
7,Escola Estadual Orestes Guimarães,School,"Rua Canindé, 153",BR,,Brasil,,161,"['Rua Canindé, 153', 'Brasil']","[{'label': 'display', 'lat': -23.533198744531834, 'lng': -46.62383428801352}]",-23.533198744531834,-46.62383428801352,,5395a1a7498e82b504b51f9c
8,Bicicletaria Mil Graus,Bike Shop,Avenida Do Estado,BR,São Paulo,Brasil,,73,"['Avenida Do Estado', 'São Paulo, SP', 'Brasil']","[{'label': 'display', 'lat': -23.53434452062471, 'lng': -46.62565272624169}]",-23.53434452062471,-46.62565272624169,SP,509e80b8e4b0872dbd43bc6d
9,Tuti Flores,,"R. 0vautier, 323",BR,São Paulo,Brasil,,116,"['R. 0vautier, 323', 'São Paulo, SP', 'Brasil']","[{'label': 'display', 'lat': -23.532727954690085, 'lng': -46.625370063096035}]",-23.532727954690085,-46.625370063096035,SP,4e58e44bd4c0ba8c119584a7
10,Tia do Café,Breakfast Spot,"Av: Do Estado, 2340",BR,São Paulo,Brasil,Av: São Caetano,175,"['Av: Do Estado, 2340 (Av: São Caetano)', 'São Paulo, SP', 'Brasil']","[{'label': 'display', 'lat': -23.535284536455244, 'lng': -46.62576579194867}]",-23.535284536455244,-46.62576579194867,SP,53155d4d498efeb8126420b5
11,Grill do Estado,Beer Garden,"Rua Joao Teodoro, 969",BR,São Paulo,Brasil,,224,"['Rua Joao Teodoro, 969', 'São Paulo, SP', 'Brasil']","[{'label': 'display', 'lat': -23.534679388883973, 'lng': -46.62333022490943}]",-23.534679388883973,-46.62333022490943,SP,5000d5bfe4b0b1602b5ed559
12,Futura Nova Sede Do Cptran,Police Station,,BR,São Paulo,Brasil,,57,"['São Paulo, SP', 'Brasil']","[{'label': 'display', 'lat': -23.534182, 'lng': -46.624944}]",-23.534182,-46.624944,SP,59f9b97ae679bc2eaadfac8e
13,Café Floresta,Coffee Shop,Shopping Azulão,BR,São Paulo,Brasil,,110,"['Shopping Azulão', 'São Paulo, SP', 'Brasil']","[{'label': 'display', 'lat': -23.533625323297567, 'lng': -46.62636410224988}]",-23.533625323297567,-46.62636410224988,SP,52dce44a11d244d38fa59ef8
14,Hotel Carinhoso,Hostel,,BR,São Paulo,Brasil,,114,"['São Paulo, SP', 'Brasil']","[{'label': 'display', 'lat': -23.534207384876105, 'lng': -46.626302857558464}]",-23.534207384876105,-46.626302857558464,SP,4e3f15c81f6e844231fbaac3
15,Springfield,Public Art,,BR,,Brasil,,134,['Brasil'],"[{'label': 'display', 'lat': -23.534638685073407, 'lng': -46.62620392398513}]",-23.534638685073407,-46.62620392398513,,5091d52ae4b013eba655ff6a
16,Sodiê Doces,Dessert Shop,,BR,,Brasil,,130,['Brasil'],"[{'label': 'display', 'lat': -23.533404443887108, 'lng': -46.62407454418384}]",-23.533404443887108,-46.62407454418384,,52937d5e11d2707e951aa461
17,비아식품,Flea Market,,BR,,Brasil,,159,['Brasil'],"[{'label': 'display', 'lat': -23.534597, 'lng': -46.624007}]",-23.534597,-46.624007,,55f2d109498e775a0173470a
18,Super troca de oleo Jacobina,Automotive Shop,"Av. Cruzeiro do Sul, 34 - Pari, São Paulo, 03033-020",BR,São Paulo,Brasil,,92,"['Av. Cruzeiro do Sul, 34 - Pari, São Paulo, 03033-020', 'São Paulo, SP', '03033-020', 'Brasil']","[{'label': 'display', 'lat': -23.534546612359552, 'lng': -46.62495078238163}]",-23.534546612359552,-46.62495078238163,SP,4f6247ebe4b07f729037a7d0
19,Braspress - CCT,Professional & Other Places,Acesso para R João Teodoro - Bom Retiro,BR,São Paulo,Brasil,,78,"['Acesso para R João Teodoro - Bom Retiro', 'São Paulo, SP', 'Brasil']","[{'label': 'display', 'lat': -23.533854496878362, 'lng': -46.62605316844133}]",-23.533854496878362,-46.62605316844133,SP,4dd2733252b15d0acc7dfd12
20,Adesul Agencia de Viagens,General Travel,"Rua Pedro Alvares Cabral, 126",BR,São Paulo,Brasil,,73,"['Rua Pedro Alvares Cabral, 126', 'São Paulo, SP', 'Brasil']","[{'label': 'display', 'lat': -23.534327116758416, 'lng': -46.625680992644405}]",-23.534327116758416,-46.625680992644405,SP,54062043498e46786b78b72f
21,Chocomentha,Clothing Store,,BR,,Brasil,,168,['Brasil'],"[{'label': 'display', 'lat': -23.53451919555664, 'lng': -46.62384796142578}]",-23.53451919555664,-46.62384796142578,,512669b0e4b0b2bcc155479f
22,Churrascaria Espeto do Sul,BBQ Joint,Rua Da Cantareira,BR,São Paulo,Brasil,,193,"['Rua Da Cantareira', 'São Paulo, SP', 'Brasil']","[{'label': 'display', 'lat': -23.534697832272418, 'lng': -46.62689646312113}]",-23.534697832272418,-46.62689646312113,SP,5172d2e6e4b0f0aa575bffbe
23,R. João Teodoro,Residential Building (Apartment / Condo),Brás,BR,São Paulo,Brasil,,262,"['Brás', 'São Paulo, Rio de Janeiro', 'Brasil']","[{'label': 'display', 'lat': -23.534885962626056, 'lng': -46.62302681589856}]",-23.534885962626056,-46.62302681589856,Rio de Janeiro,501ed391e4b0efa1ec785b29
24,Bar do Primo,Brazilian Restaurant,"Rua Joao Teodoro, 564",BR,,Brasil,,269,"['Rua Joao Teodoro, 564', 'Brasil']","[{'label': 'display', 'lat': -23.534810070758567, 'lng': -46.62767852568288}]",-23.534810070758567,-46.62767852568288,,4e89d7fb2c5b673ad556e261
25,Bar do Zé,Snack Place,"Rua Alfredo Maia, 544",BR,,Brasil,,216,"['Rua Alfredo Maia, 544', 'Brasil']","[{'label': 'display', 'lat': -23.53186278821081, 'lng': -46.62567157050838}]",-23.53186278821081,-46.62567157050838,,4fb378eae4b00e09e21415a3
26,Bar do Bigode,Bar,"R. João Teodoro, 538",BR,São Paulo,Brasil,,228,"['R. João Teodoro, 538', 'São Paulo, SP', 'Brasil']","[{'label': 'display', 'lat': -23.533700787943413, 'lng': -46.627523054437695}]",-23.533700787943413,-46.627523054437695,SP,4cf6fe9f55e137046f47d0b6
27,Banca do Churrasco Grego,Food Truck,,BR,,Brasil,,236,['Brasil'],"[{'label': 'display', 'lat': -23.533736589714138, 'lng': -46.622972201875164}]",-23.533736589714138,-46.622972201875164,,532a3bd5498eb260342a77c5
28,2º BPMChoque,Government Building,"Rua Jorge Miranda, 367",BR,São Paulo,Brasil,,213,"['Rua Jorge Miranda, 367', 'São Paulo, SP', 'Brasil']","[{'label': 'display', 'lat': -23.532235, 'lng': -46.626533}]",-23.532235,-46.626533,SP,4d838fdbf9f3a1cdcd2da364
29,@millalegiao,,Rua caninde,BR,,Brasil,,201,"['Rua caninde', 'Brasil']","[{'label': 'display', 'lat': -23.53197, 'lng': -46.625471}]",-23.53197,-46.625471,,4d16212925cda1430d576ed6
0,Jin Jiang Tower (Jin Jiang Tower (新锦江酒店)),Hotel,161 Changle Rd,CN,上海市,中国,Ruijin Yi Rd,95,"['161 Changle Rd (Ruijin Yi Rd)', '上海市', '上海市, 200020', '中国']","[{'label': 'display', 'lat': 31.222937135364045, 'lng': 121.4586094553618}]",31.222937135364045,121.4586094553618,上海市,4b0588bbf964a5207ad622e3
1,Middle Huaihai Road Metro Station (淮海中路地铁站),Metro Station,"Huaihai M Rd, Ruijin 1st Rd | 淮海中路, 瑞金一路",CN,Xuhui,中国,Line 13,173,"['Huaihai M Rd, Ruijin 1st Rd | 淮海中路, 瑞金一路 (Line 13)', 'Xuhui', '上海市', '中国']","[{'label': 'display', 'lat': 31.221850127127283, 'lng': 121.4598323660266}]",31.221850127127283,121.4598323660266,上海市,5674f055498ef5898d977056
2,豊裕,Chinese Restaurant,,CN,,中国,,23,['中国'],"[{'label': 'display', 'lat': 31.2224178314209, 'lng': 121.4581527709961}]",31.2224178314209,121.4581527709961,,5054286ce4b0c6835f36f11c
3,Family Mart (全家),Convenience Store,,CN,,中国,,48,['中国'],"[{'label': 'display', 'lat': 31.222647525502783, 'lng': 121.45815770820123}]",31.222647525502783,121.45815770820123,,56d6b19a498e3aca1a12fda5
4,McDonald's (麦当劳),Fast Food Restaurant,淮海中路918号,CN,Jing'an,中国,陕西南路,494,"['淮海中路918号 (陕西南路)', ""Jing'an"", '上海市', '中国']","[{'label': 'display', 'lat': 31.218859854912083, 'lng': 121.45465709991429}]",31.218859854912083,121.45465709991429,上海市,4cdbcce83f6a8cfada3dedea
5,小南国日式烧烤,BBQ Joint,"长乐路161号, 新锦江大酒店3楼",CN,上海市,中国,瑞金一路,70,"['长乐路161号, 新锦江大酒店3楼 (瑞金一路)', '上海市', '上海市', '中国']","[{'label': 'display', 'lat': 31.2228250113594, 'lng': 121.45826371195676}]",31.2228250113594,121.45826371195676,上海市,4c0a02bc35ac9c74e98a85f7
6,Seafood Noodle (十面欢腾),Seafood Restaurant,352 Changle Rd | 长乐路352号,CN,Jing’an,中国,Ruijin 1st Rd | 瑞金一路,92,"['352 Changle Rd | 长乐路352号 (Ruijin 1st Rd | 瑞金一路), Jìngān', 'Jing’an', '上海市', '中国']","[{'label': 'display', 'lat': 31.223022, 'lng': 121.457788}]",31.223022,121.457788,上海市,4d804ad4577eb1f76500a6d3
7,Orient Optical,Optical Shop,瑞金一路142号,CN,上海市,中国,淮海中路,90,"['瑞金一路142号 (淮海中路)', '上海市', '上海市', '中国']","[{'label': 'display', 'lat': 31.221957, 'lng': 121.458965}]",31.221957,121.458965,上海市,5b6c0123396de0002c2829e5
8,Shanghai Tang,Accessories Store,59 Mao Ming Nan Road,CN,上海市,中国,,180,"['59 Mao Ming Nan Road', '上海市', '上海市, 200020', '中国']","[{'label': 'display', 'lat': 31.222629, 'lng': 121.456226}]",31.222629,121.456226,上海市,4b0588c4f964a52031d922e3
9,SEPHORA (丝芙兰),Cosmetics Shop,939 Middle Huaihai Rd (巴黎春天),CN,上海市,中国,South Shanxi Rd,129,"['939 Middle Huaihai Rd (巴黎春天) (South Shanxi Rd)', '上海市', '上海市', '中国']","[{'label': 'display', 'lat': 31.221408600953797, 'lng': 121.45902805194278}]",31.221408600953797,121.45902805194278,上海市,507290d2e4b07e253d4c291f
10,花鳥風月,Japanese Restaurant,长乐路318号（*瑞金一路）,CN,上海市,中国,,166,"['长乐路318号（*瑞金一路）', '上海市', '上海市', '中国']","[{'label': 'display', 'lat': 31.223325539181506, 'lng': 121.4592432975769}]",31.223325539181506,121.4592432975769,上海市,517e5098e4b0cfe160f51174
11,丰裕生煎小吃,Chinese Restaurant,瑞金一路142号旁,CN,上海市,中国,淮海中路,160,"['瑞金一路142号旁 (淮海中路)', '上海市', '上海市, 20000', '中国']","[{'label': 'display', 'lat': 31.221291714098616, 'lng': 121.45935163960836}]",31.221291714098616,121.45935163960836,上海市,4e800355f790e8a841ede619
12,Xinwang Restaurant (新旺茶餐厅),Hong Kong Restaurant,长乐路175号 | 175 Changle Rd.,CN,上海市,中国,茂名南路 | Maoming Rd. (S),129,"['长乐路175号 | 175 Changle Rd. (茂名南路 | Maoming Rd. (S))', '上海市', '上海市, 200020', '中国']","[{'label': 'display', 'lat': 31.222918020961508, 'lng': 121.45697436150694}]",31.222918020961508,121.45697436150694,上海市,4ba3d506f964a520636438e3
13,Bi Feng Tang (避风塘),Cantonese Restaurant,长乐路175号,CN,上海市,中国,茂名路,155,"['长乐路175号 (茂名路)', '上海市', '上海市', '中国']","[{'label': 'display', 'lat': 31.222981, 'lng': 121.4566955}]",31.222981,121.4566955,上海市,4b97c008f964a520471335e3
14,"VIP Club, Jin Jiang Hotel (锦江酒店 贵宾俱乐部)",Chinese Restaurant,上海市卢湾区茂名南路59号,CN,上海市,中国,,116,"['上海市卢湾区茂名南路59号', '上海市', '上海市, 200020', '中国']","[{'label': 'display', 'lat': 31.22288502898567, 'lng': 121.45900573551863}]",31.22288502898567,121.45900573551863,上海市,4bdc0f4bc712b713e5b463b4
15,Harbour Apartments,Residential Building (Apartment / Condo),417 Julu Lu,CN,上海市,中国,,5,"['417 Julu Lu', '上海市', '上海市', '中国']","[{'label': 'display', 'lat': 31.222239, 'lng': 121.458012}]",31.222239,121.458012,上海市,59b11973cf72a0694760b2e1
16,Kee Club,Club House,796 M Huaihai Rd,CN,上海市,中国,Maoming Rd,149,"['796 M Huaihai Rd (Maoming Rd)', '上海市', '上海市, 200020', '中国']","[{'label': 'display', 'lat': 31.220879442902405, 'lng': 121.45810264328675}]",31.220879442902405,121.45810264328675,上海市,4b72b661f964a520f5842de3
17,Old Shanghai Moon Restaurant,Chinese Restaurant,,CN,,中国,,185,['中国'],"[{'label': 'display', 'lat': 31.222965857946722, 'lng': 121.45631657480874}]",31.222965857946722,121.45631657480874,,4f6f007be4b0ca47b264dbb9
18,Tairyo Teppanyaki (大渔铁板烧),Japanese Restaurant,2/F 139 Ruijin 1st Rd | 瑞金一路139号2楼,CN,Jing'an,中国,Changle Rd | 长乐路,114,"['2/F 139 Ruijin 1st Rd | 瑞金一路139号2楼 (Changle Rd | 长乐路)', ""Jing'an"", '上海市', '中国']","[{'label': 'display', 'lat': 31.2229551691732, 'lng': 121.45889539311476}]",31.2229551691732,121.45889539311476,上海市,4bc8609615a7ef3b7beb7ada
19,"Aska, Japanese restaurant",Japanese Restaurant,Changle Road,CN,上海市,中国,Ruijin Road,116,"['Changle Road (Ruijin Road)', '上海市', '上海市', '中国']","[{'label': 'display', 'lat': 31.22309284326202, 'lng': 121.45874351721113}]",31.22309284326202,121.45874351721113,上海市,4c7dd5e1724976b0cc88a40a
20,United Nude,Shoe Store,Huaihai st,CN,上海市,中国,,203,"['Huaihai st', '上海市', '上海市', '中国']","[{'label': 'display', 'lat': 31.220396463746468, 'lng': 121.45819118308191}]",31.220396463746468,121.45819118308191,上海市,4d99b50aa2c65481502f0d54
21,向明中学,High School,瑞金一路100号,CN,上海市,中国,,82,"['瑞金一路100号', '上海市', '上海市', '中国']","[{'label': 'display', 'lat': 31.22238914166939, 'lng': 121.45889973244479}]",31.22238914166939,121.45889973244479,上海市,4b643db1f964a520e8a52ae3
22,万藏BANKURA,Japanese Restaurant,长乐路344号1楼,CN,上海市,中国,瑞金一路口,98,"['长乐路344号1楼 (瑞金一路口)', '上海市', '上海市, 200020', '中国']","[{'label': 'display', 'lat': 31.223096962447627, 'lng': 121.4581960216121}]",31.223096962447627,121.4581960216121,上海市,4c9c3bd4542b224bb4f9de9f
23,心乐面馆,Shandong Restaurant,进贤路120号,CN,上海市,中国,茂名南路,187,"['进贤路120号 (茂名南路)', '上海市', '上海市', '中国']","[{'label': 'display', 'lat': 31.221697, 'lng': 121.459937}]",31.221697,121.459937,上海市,59eaf6b96fa81f72c812bc49
24,甬府,Zhejiang Restaurant,"12/F, North Building, Jinjiang Hotel, 59 Maoming Nan Road | 茂名南路59号锦江饭店锦北楼12楼",CN,上海市,中国,Changle Road | 近长乐路,124,"['12/F, North Building, Jinjiang Hotel, 59 Maoming Nan Road | 茂名南路59号锦江饭店锦北楼12楼 (Changle Road | 近长乐路), Jìngān', '上海市', '上海市', '中国']","[{'label': 'display', 'lat': 31.22213382996031, 'lng': 121.45675175444337}]",31.22213382996031,121.45675175444337,上海市,54424ad1498eeca538f310f7
25,驰翰艺术馆 Johhan Auction Gallery,Art Gallery,407 Julu Road,CN,上海市,中国,Shaanxi Road,47,"['407 Julu Road (Shaanxi Road)', '上海市', '上海市', '中国']","[{'label': 'display', 'lat': 31.2226093617449, 'lng': 121.45784527551321}]",31.2226093617449,121.45784527551321,上海市,4dd47c72ae60a78cec58a8cc
26,Jin Lu,Chinese Restaurant,,CN,,中国,,156,['中国'],"[{'label': 'display', 'lat': 31.22236404599595, 'lng': 121.45642258025553}]",31.22236404599595,121.45642258025553,,4fbcd39ee4b0cc7b0169abbe
27,转角上海老弄堂餐厅,Shanghai Restaurant,瑞金一路139号2楼,CN,上海市,中国,,123,"['瑞金一路139号2楼', '上海市', '上海市', '中国']","[{'label': 'display', 'lat': 31.223000157580408, 'lng': 121.45898899819764}]",31.223000157580408,121.45898899819764,上海市,553b6ae3498e983c7ebfb2db
28,Ruby (红宝石),Cupcake Shop,瑞金一路128号,CN,上海市,中国,近淮海中路,140,"['瑞金一路128号 (近淮海中路)', '上海市', '上海市, 200020', '中国']","[{'label': 'display', 'lat': 31.221400454742223, 'lng': 121.45917868769311}]",31.221400454742223,121.45917868769311,上海市,4de9c0cbc65be8091d945867
29,老夜上海,Chinese Restaurant,11楼，锦江饭店，茂名路,CN,上海市,中国,,133,"['11楼，锦江饭店，茂名路', '上海市', '上海市', '中国']","[{'label': 'display', 'lat': 31.22240333431301, 'lng': 121.45667922461826}]",31.22240333431301,121.45667922461826,上海市,4d303f3e5f806dcb931117ac
